CCSDS_OMM_VERS = 2.0
CREATION_DATE  = 
ORIGINATOR     = 

OBJECT_NAME    = ERS-1
OBJECT_ID      = 1991-050A
CENTER_NAME    = EARTH
REF_FRAME      = TEME
TIME_SYSTEM    = UTC
MEAN_ELEMENT_THEORY = SGP/SGP4

EPOCH          = 2026-04-24T00:25:48.230112
MEAN_MOTION    = 14.39481692
ECCENTRICITY   = .0033027
INCLINATION    = 98.7837
RA_OF_ASC_NODE = 133.3851
ARG_OF_PERICENTER = 68.8139
MEAN_ANOMALY   = 291.6572

EPHEMERIS_TYPE = 0
CLASSIFICATION_TYPE = U
NORAD_CAT_ID   = 21574
ELEMENT_SET_NO = 999
REV_AT_EPOCH   = 82225
BSTAR          = .80098E-4
MEAN_MOTION_DOT = .205E-5
MEAN_MOTION_DDOT = 0

CCSDS_OMM_VERS = 2.0
CREATION_DATE  = 
ORIGINATOR     = 

OBJECT_NAME    = ARIANE 40 R/B
OBJECT_ID      = 1991-050F
CENTER_NAME    = EARTH
REF_FRAME      = TEME
TIME_SYSTEM    = UTC
MEAN_ELEMENT_THEORY = SGP/SGP4

EPOCH          = 2026-04-24T02:23:43.368864
MEAN_MOTION    = 14.42923775
ECCENTRICITY   = .0001891
INCLINATION    = 98.1925
RA_OF_ASC_NODE = 164.6113
ARG_OF_PERICENTER = 310.8203
MEAN_ANOMALY   = 49.2823

EPHEMERIS_TYPE = 0
CLASSIFICATION_TYPE = U
NORAD_CAT_ID   = 21610
ELEMENT_SET_NO = 999
REV_AT_EPOCH   = 82554
BSTAR          = .63536E-4
MEAN_MOTION_DOT = .171E-5
MEAN_MOTION_DDOT = 0

CCSDS_OMM_VERS = 2.0
CREATION_DATE  = 
ORIGINATOR     = 

OBJECT_NAME    = INTERCOSMOS 25
OBJECT_ID      = 1991-086A
CENTER_NAME    = EARTH
REF_FRAME      = TEME
TIME_SYSTEM    = UTC
MEAN_ELEMENT_THEORY = SGP/SGP4

EPOCH          = 2026-04-23T23:19:33.466368
MEAN_MOTION    = 12.12126509
ECCENTRICITY   = .1485734
INCLINATION    = 82.5991
RA_OF_ASC_NODE = 282.6202
ARG_OF_PERICENTER = 19.3427
MEAN_ANOMALY   = 345.8366

EPHEMERIS_TYPE = 0
CLASSIFICATION_TYPE = U
NORAD_CAT_ID   = 21819
ELEMENT_SET_NO = 999
REV_AT_EPOCH   = 50217
BSTAR          = .90496E-4
MEAN_MOTION_DOT = .483E-5
MEAN_MOTION_DDOT = 0

CCSDS_OMM_VERS = 2.0
CREATION_DATE  = 
ORIGINATOR     = 

OBJECT_NAME    = SL-8 R/B
OBJECT_ID      = 1992-008B
CENTER_NAME    = EARTH
REF_FRAME      = TEME
TIME_SYSTEM    = UTC
MEAN_ELEMENT_THEORY = SGP/SGP4

EPOCH          = 2026-04-23T13:52:33.636576
MEAN_MOTION    = 13.75970382
ECCENTRICITY   = .00347357
INCLINATION    = 82.9276
RA_OF_ASC_NODE = 234.3847
ARG_OF_PERICENTER = 11.5735
MEAN_ANOMALY   = 359.8536

EPHEMERIS_TYPE = 0
CLASSIFICATION_TYPE = U
NORAD_CAT_ID   = 21876
ELEMENT_SET_NO = 999
REV_AT_EPOCH   = 71559
BSTAR          = .31548303E-4
MEAN_MOTION_DOT = .46E-6
MEAN_MOTION_DDOT = 0

CCSDS_OMM_VERS = 2.0
CREATION_DATE  = 
ORIGINATOR     = 

OBJECT_NAME    = SL-8 R/B
OBJECT_ID      = 1992-020B
CENTER_NAME    = EARTH
REF_FRAME      = TEME
TIME_SYSTEM    = UTC
MEAN_ELEMENT_THEORY = SGP/SGP4

EPOCH          = 2026-04-24T03:45:34.432992
MEAN_MOTION    = 13.75548673
ECCENTRICITY   = .0029285
INCLINATION    = 82.9269
RA_OF_ASC_NODE = 119.9929
ARG_OF_PERICENTER = 168.0964
MEAN_ANOMALY   = 265.0385

EPHEMERIS_TYPE = 0
CLASSIFICATION_TYPE = U
NORAD_CAT_ID   = 21938
ELEMENT_SET_NO = 999
REV_AT_EPOCH   = 70738
BSTAR          = -.56988E-4
MEAN_MOTION_DOT = -.4E-6
MEAN_MOTION_DDOT = 0

CCSDS_OMM_VERS = 2.0
CREATION_DATE  = 
ORIGINATOR     = 

OBJECT_NAME    = USA 81
OBJECT_ID      = 1992-023A
CENTER_NAME    = EARTH
REF_FRAME      = TEME
TIME_SYSTEM    = UTC
MEAN_ELEMENT_THEORY = SGP/SGP4

EPOCH          = 2026-04-23T23:54:34.462080
MEAN_MOTION    = 14.32381781
ECCENTRICITY   = .0001282
INCLINATION    = 85.0035
RA_OF_ASC_NODE = 105.2862
ARG_OF_PERICENTER = 100.7424
MEAN_ANOMALY   = 259.3913

EPHEMERIS_TYPE = 0
CLASSIFICATION_TYPE = U
NORAD_CAT_ID   = 21949
ELEMENT_SET_NO = 999
REV_AT_EPOCH   = 10127
BSTAR          = .44624E-4
MEAN_MOTION_DOT = .141E-5
MEAN_MOTION_DDOT = 0

CCSDS_OMM_VERS = 2.0
CREATION_DATE  = 
ORIGINATOR     = 

OBJECT_NAME    = COSMOS 2219
OBJECT_ID      = 1992-076A
CENTER_NAME    = EARTH
REF_FRAME      = TEME
TIME_SYSTEM    = UTC
MEAN_ELEMENT_THEORY = SGP/SGP4

EPOCH          = 2026-04-23T22:26:12.742080
MEAN_MOTION    = 14.14094274
ECCENTRICITY   = .001694
INCLINATION    = 71.0592
RA_OF_ASC_NODE = 283.4843
ARG_OF_PERICENTER = 135.5391
MEAN_ANOMALY   = 224.7095

EPHEMERIS_TYPE = 0
CLASSIFICATION_TYPE = U
NORAD_CAT_ID   = 22219
ELEMENT_SET_NO = 999
REV_AT_EPOCH   = 72477
BSTAR          = .21524E-3
MEAN_MOTION_DOT = .363E-5
MEAN_MOTION_DDOT = 0

CCSDS_OMM_VERS = 2.0
CREATION_DATE  = 
ORIGINATOR     = 

OBJECT_NAME    = SL-16 R/B
OBJECT_ID      = 1992-076B
CENTER_NAME    = EARTH
REF_FRAME      = TEME
TIME_SYSTEM    = UTC
MEAN_ELEMENT_THEORY = SGP/SGP4

EPOCH          = 2026-04-24T03:59:06.279360
MEAN_MOTION    = 14.16865872
ECCENTRICITY   = .0011968
INCLINATION    = 70.9982
RA_OF_ASC_NODE = 92.5778
ARG_OF_PERICENTER = 15.3516
MEAN_ANOMALY   = 62.9490

EPHEMERIS_TYPE = 0
CLASSIFICATION_TYPE = U
NORAD_CAT_ID   = 22220
ELEMENT_SET_NO = 999
REV_AT_EPOCH   = 72827
BSTAR          = -.89505E-4
MEAN_MOTION_DOT = -.228E-5
MEAN_MOTION_DDOT = 0

CCSDS_OMM_VERS = 2.0
CREATION_DATE  = 
ORIGINATOR     = 

OBJECT_NAME    = COSMOS 2221
OBJECT_ID      = 1992-080A
CENTER_NAME    = EARTH
REF_FRAME      = TEME
TIME_SYSTEM    = UTC
MEAN_ELEMENT_THEORY = SGP/SGP4

EPOCH          = 2026-04-23T13:49:53.574528
MEAN_MOTION    = 14.96380019
ECCENTRICITY   = .0015165
INCLINATION    = 82.5043
RA_OF_ASC_NODE = 236.0737
ARG_OF_PERICENTER = 46.5379
MEAN_ANOMALY   = 313.7101

EPHEMERIS_TYPE = 0
CLASSIFICATION_TYPE = U
NORAD_CAT_ID   = 22236
ELEMENT_SET_NO = 999
REV_AT_EPOCH   = 78750
BSTAR          = .1126115E-3
MEAN_MOTION_DOT = .1304E-4
MEAN_MOTION_DDOT = 0

CCSDS_OMM_VERS = 2.0
CREATION_DATE  = 
ORIGINATOR     = 

OBJECT_NAME    = SL-16 R/B
OBJECT_ID      = 1992-093B
CENTER_NAME    = EARTH
REF_FRAME      = TEME
TIME_SYSTEM    = UTC
MEAN_ELEMENT_THEORY = SGP/SGP4

EPOCH          = 2026-04-23T21:32:31.452000
MEAN_MOTION    = 14.15456154
ECCENTRICITY   = .0006179
INCLINATION    = 71.0206
RA_OF_ASC_NODE = 269.3595
ARG_OF_PERICENTER = 247.5610
MEAN_ANOMALY   = 112.4859

EPHEMERIS_TYPE = 0
CLASSIFICATION_TYPE = U
NORAD_CAT_ID   = 22285
ELEMENT_SET_NO = 999
REV_AT_EPOCH   = 71955
BSTAR          = .18653E-3
MEAN_MOTION_DOT = .317E-5
MEAN_MOTION_DDOT = 0

CCSDS_OMM_VERS = 2.0
CREATION_DATE  = 
ORIGINATOR     = 

OBJECT_NAME    = COSMOS 2228
OBJECT_ID      = 1992-094A
CENTER_NAME    = EARTH
REF_FRAME      = TEME
TIME_SYSTEM    = UTC
MEAN_ELEMENT_THEORY = SGP/SGP4

EPOCH          = 2026-04-24T03:55:58.553760
MEAN_MOTION    = 14.97403875
ECCENTRICITY   = .0018941
INCLINATION    = 82.5204
RA_OF_ASC_NODE = 193.7764
ARG_OF_PERICENTER = 145.4246
MEAN_ANOMALY   = 214.8212

EPHEMERIS_TYPE = 0
CLASSIFICATION_TYPE = U
NORAD_CAT_ID   = 22286
ELEMENT_SET_NO = 999
REV_AT_EPOCH   = 78286
BSTAR          = .12921E-3
MEAN_MOTION_DOT = .1534E-4
MEAN_MOTION_DDOT = 0

CCSDS_OMM_VERS = 2.0
CREATION_DATE  = 
ORIGINATOR     = 

OBJECT_NAME    = SL-16 R/B
OBJECT_ID      = 1993-016B
CENTER_NAME    = EARTH
REF_FRAME      = TEME
TIME_SYSTEM    = UTC
MEAN_ELEMENT_THEORY = SGP/SGP4

EPOCH          = 2026-04-24T03:42:35.546112
MEAN_MOTION    = 14.15310308
ECCENTRICITY   = .0012617
INCLINATION    = 71.0038
RA_OF_ASC_NODE = 119.6941
ARG_OF_PERICENTER = 256.8551
MEAN_ANOMALY   = 103.1164

EPHEMERIS_TYPE = 0
CLASSIFICATION_TYPE = U
NORAD_CAT_ID   = 22566
ELEMENT_SET_NO = 999
REV_AT_EPOCH   = 70860
BSTAR          = -.11791E-3
MEAN_MOTION_DOT = -.278E-5
MEAN_MOTION_DDOT = 0

